SKYSAT-C2               
1 41773U 16058D   26068.57832732  .00013915  00000+0  35386-3 0  9997
2 41773  97.0282  94.5330 0005041  68.4779 291.7005 15.39697823529718
KUIPER-00248            
1 67153U 25301W   26068.25007030  .00048086  00000+0  12900-2 0  9991
2 67153  51.8685  67.7485 0011196  42.2591 317.9256 15.37429186 13839
