[{"OBJECT_NAME":"SKYSAT-C2","OBJECT_ID":"2016-058D","EPOCH":"2026-03-09T13:52:47.480448","MEAN_MOTION":15.39697823,"ECCENTRICITY":0.0005041,"INCLINATION":97.0282,"RA_OF_ASC_NODE":94.533,"ARG_OF_PERICENTER":68.4779,"MEAN_ANOMALY":291.7005,"EPHEMERIS_TYPE":0,"CLASSIFICATION_TYPE":"U","NORAD_CAT_ID":41773,"ELEMENT_SET_NO":999,"REV_AT_EPOCH":52971,"BSTAR":0.00035386,"MEAN_MOTION_DOT":0.00013915,"MEAN_MOTION_DDOT":0},{"OBJECT_NAME":"KUIPER-00248","OBJECT_ID":"2025-301W","EPOCH":"2026-03-09T06:00:06.073920","MEAN_MOTION":15.37429186,"ECCENTRICITY":0.00111963,"INCLINATION":51.8685,"RA_OF_ASC_NODE":67.7485,"ARG_OF_PERICENTER":42.2591,"MEAN_ANOMALY":317.9256,"EPHEMERIS_TYPE":0,"CLASSIFICATION_TYPE":"U","NORAD_CAT_ID":67153,"ELEMENT_SET_NO":999,"REV_AT_EPOCH":1383,"BSTAR":0.0012899652,"MEAN_MOTION_DOT":0.00048086,"MEAN_MOTION_DDOT":0}]
